{"type": "FeatureCollection", "features": [ {"type": "Feature", "properties": {"norad_id": 66482, "name": "STARLINK-35648", "group": "last-30-days", "lat": -36.472753708530355, "lon": -19.422145678811244, "alt_km": 417.5506824549575, "timestamp": "2025-12-06T09:34:15.698889+00:00", "meta": {"OBJECT_NAME": "STARLINK-35648", "OBJECT_ID": "2025-262AC", "EPOCH": "2025-12-05T22:00:03.000096", "MEAN_MOTION": 15.5059975, "ECCENTRICITY": 0.00014274, "INCLINATION": 43.0004, "RA_OF_ASC_NODE": 110.9054, "ARG_OF_PERICENTER": 285.006, "MEAN_ANOMALY": 141.3572, "EPHEMERIS_TYPE": 0, "CLASSIFICATION_TYPE": "U", "NORAD_CAT_ID": 66482, "ELEMENT_SET_NO": 999, "REV_AT_EPOCH": 438, "BSTAR": -0.00095844876, "MEAN_MOTION_DOT": -0.00056208, "MEAN_MOTION_DDOT": 0}, "tle": {"line1": "1 66482U 25262AC  25339.91670139 -.00056208  00000+0 -95845-3 0  9997", "line2": "2 66482  43.0004 110.9054 0001427 285.0060 141.3572 15.50599750  4388"}}, "geometry": {"type": "Point", "coordinates": [-19.422145678811244, -36.472753708530355]}}, {"type": "Feature", "properties": {"norad_id": 66483, "name": "STARLINK-35654", "group": "last-30-days", "lat": -37.24709129322072, "lon": -17.240776932726448, "alt_km": 417.765982049239, "timestamp": "2025-12-06T09:34:15.698900+00:00", "meta": {"OBJECT_NAME": "STARLINK-35654", "OBJECT_ID": "2025-262AD", "EPOCH": "2025-12-05T22:00:03.000096", "MEAN_MOTION": 15.50637505, "ECCENTRICITY": 0.00012786, "INCLINATION": 43.0005, "RA_OF_ASC_NODE": 110.9002, "ARG_OF_PERICENTER": 292.7975, "MEAN_ANOMALY": 135.4604, "EPHEMERIS_TYPE": 0, "CLASSIFICATION_TYPE": "U", "NORAD_CAT_ID": 66483, "ELEMENT_SET_NO": 999, "REV_AT_EPOCH": 454, "BSTAR": -0.0018695201, "MEAN_MOTION_DOT": -0.00108732, "MEAN_MOTION_DDOT": 0}, "tle": {"line1": "1 66483U 25262AD  25339.91670139 -.00108732  00000+0 -18695-2 0  9995", "line2": "2 66483  43.0005 110.9002 0001278 292.7975 135.4604 15.50637505  4546"}}, "geometry": {"type": "Point", "coordinates": [-17.240776932726448, -37.24709129322072]}}, {"type": "Feature", "properties": {"norad_id": 66484, "name": "STARLINK-35371", "group": "last-30-days", "lat": -37.98253984348263, "lon": -15.006169194339813, "alt_km": 417.49447876848717, "timestamp": "2025-12-06T09:34:15.698909+00:00", "meta": {"OBJECT_NAME": "STARLINK-35371", "OBJECT_ID": "2025-262AE", "EPOCH": "2025-12-05T22:00:03.000096", "MEAN_MOTION": 15.50616019, "ECCENTRICITY": 0.00015275, "INCLINATION": 43.0002, "RA_OF_ASC_NODE": 110.896, "ARG_OF_PERICENTER": 278.6063, "MEAN_ANOMALY": 151.5925, "EPHEMERIS_TYPE": 0, "CLASSIFICATION_TYPE": "U", "NORAD_CAT_ID": 66484, "ELEMENT_SET_NO": 999, "REV_AT_EPOCH": 454, "BSTAR": -0.0015097648, "MEAN_MOTION_DOT": -0.0008804, "MEAN_MOTION_DDOT": 0}, "tle": {"line1": "1 66484U 25262AE  25339.91670139 -.00088040  00000+0 -15098-2 0  9999", "line2": "2 66484  43.0002 110.8960 0001527 278.6063 151.5925 15.50616019  4546"}}, "geometry": {"type": "Point", "coordinates": [-15.006169194339813, -37.98253984348263]}}, {"type": "Feature", "properties": {"norad_id": 66485, "name": "STARLINK-34774", "group": "last-30-days", "lat": 42.61149722141145, "lon": -98.50570148269094, "alt_km": 385.5887495151792, "timestamp": "2025-12-06T09:34:15.698922+00:00", "meta": {"OBJECT_NAME": "STARLINK-34774", "OBJECT_ID": "2025-263A", "EPOCH": "2025-12-05T22:00:03.000096", "MEAN_MOTION": 15.60900425, "ECCENTRICITY": 0.00014568, "INCLINATION": 42.9996, "RA_OF_ASC_NODE": 165.1827, "ARG_OF_PERICENTER": 267.933, "MEAN_ANOMALY": 358.3654, "EPHEMERIS_TYPE": 0, "CLASSIFICATION_TYPE": "U", "NORAD_CAT_ID": 66485, "ELEMENT_SET_NO": 999, "REV_AT_EPOCH": 453, "BSTAR": -0.026177975, "MEAN_MOTION_DOT": -0.01979707, "MEAN_MOTION_DDOT": 0}, "tle": {"line1": "1 66485U 25263A   25339.91670139 -.01979707  00000+0 -26178-1 0  9991", "line2": "2 66485  42.9996 165.1827 0001456 267.9330 358.3654 15.60900425  4534"}}, "geometry": {"type": "Point", "coordinates": [-98.50570148269094, 42.61149722141145]}}, {"type": "Feature", "properties": {"norad_id": 66486, "name": "STARLINK-34844", "group": "last-30-days", "lat": 42.373863301430355, "lon": -95.93041401543083, "alt_km": 385.7240942204635, "timestamp": "2025-12-06T09:34:15.698932+00:00", "meta": {"OBJECT_NAME": "STARLINK-34844", "OBJECT_ID": "2025-263B", "EPOCH": "2025-12-05T22:00:03.000096", "MEAN_MOTION": 15.60899654, "ECCENTRICITY": 0.00016036, "INCLINATION": 42.9994, "RA_OF_ASC_NODE": 165.1769, "ARG_OF_PERICENTER": 267.6727, "MEAN_ANOMALY": 0.5428, "EPHEMERIS_TYPE": 0, "CLASSIFICATION_TYPE": "U", "NORAD_CAT_ID": 66486, "ELEMENT_SET_NO": 999, "REV_AT_EPOCH": 449, "BSTAR": -0.026169395, "MEAN_MOTION_DOT": -0.01979194, "MEAN_MOTION_DDOT": 0}, "tle": {"line1": "1 66486U 25263B   25339.91670139 -.01979194  00000+0 -26169-1 0  9992", "line2": "2 66486  42.9994 165.1769 0001603 267.6727   0.5428 15.60899654  4490"}}, "geometry": {"type": "Point", "coordinates": [-95.93041401543083, 42.373863301430355]}}, {"type": "Feature", "properties": {"norad_id": 66487, "name": "STARLINK-34733", "group": "last-30-days", "lat": 42.07868900753787, "lon": -93.37337880773956, "alt_km": 385.743344217145, "timestamp": "2025-12-06T09:34:15.698942+00:00", "meta": {"OBJECT_NAME": "STARLINK-34733", "OBJECT_ID": "2025-263C", "EPOCH": "2025-12-05T22:00:03.000096", "MEAN_MOTION": 15.60901402, "ECCENTRICITY": 0.00015762, "INCLINATION": 42.9993, "RA_OF_ASC_NODE": 165.1729, "ARG_OF_PERICENTER": 267.6572, "MEAN_ANOMALY": 2.4736, "EPHEMERIS_TYPE": 0, "CLASSIFICATION_TYPE": "U", "NORAD_CAT_ID": 66487, "ELEMENT_SET_NO": 999, "REV_AT_EPOCH": 453, "BSTAR": -0.02618316, "MEAN_MOTION_DOT": -0.01980206, "MEAN_MOTION_DDOT": 0}, "tle": {"line1": "1 66487U 25263C   25339.91670139 -.01980206  00000+0 -26183-1 0  9995", "line2": "2 66487  42.9993 165.1729 0001576 267.6572   2.4736 15.60901402  4536"}}, "geometry": {"type": "Point", "coordinates": [-93.37337880773956, 42.07868900753787]}}, {"type": "Feature", "properties": {"norad_id": 66488, "name": "STARLINK-35515", "group": "last-30-days", "lat": 41.72735003470823, "lon": -90.84358103332156, "alt_km": 385.7920644530841, "timestamp": "2025-12-06T09:34:15.698952+00:00", "meta": {"OBJECT_NAME": "STARLINK-35515", "OBJECT_ID": "2025-263D", "EPOCH": "2025-12-05T22:00:03.000096", "MEAN_MOTION": 15.6090119, "ECCENTRICITY": 0.00015759, "INCLINATION": 42.9994, "RA_OF_ASC_NODE": 165.1677, "ARG_OF_PERICENTER": 268.4269, "MEAN_ANOMALY": 3.6208, "EPHEMERIS_TYPE": 0, "CLASSIFICATION_TYPE": "U", "NORAD_CAT_ID": 66488, "ELEMENT_SET_NO": 999, "REV_AT_EPOCH": 453, "BSTAR": -0.026177546, "MEAN_MOTION_DOT": -0.01979818, "MEAN_MOTION_DDOT": 0}, "tle": {"line1": "1 66488U 25263D   25339.91670139 -.01979818  00000+0 -26178-1 0  9997", "line2": "2 66488  42.9994 165.1677 0001575 268.4269   3.6208 15.60901190  4532"}}, "geometry": {"type": "Point", "coordinates": [-90.84358103332156, 41.72735003470823]}}, {"type": "Feature", "properties": {"norad_id": 66489, "name": "STARLINK-35696", "group": "last-30-days", "lat": 41.32089291476471, "lon": -88.34372993485263, "alt_km": 385.86866341222594, "timestamp": "2025-12-06T09:34:15.698964+00:00", "meta": {"OBJECT_NAME": "STARLINK-35696", "OBJECT_ID": "2025-263E", "EPOCH": "2025-12-05T22:00:03.000096", "MEAN_MOTION": 15.60899028, "ECCENTRICITY": 0.00016027, "INCLINATION": 42.9994, "RA_OF_ASC_NODE": 165.1626, "ARG_OF_PERICENTER": 268.8321, "MEAN_ANOMALY": 5.1349, "EPHEMERIS_TYPE": 0, "CLASSIFICATION_TYPE": "U", "NORAD_CAT_ID": 66489, "ELEMENT_SET_NO": 999, "REV_AT_EPOCH": 453, "BSTAR": -0.026159624, "MEAN_MOTION_DOT": -0.01978502, "MEAN_MOTION_DDOT": 0}, "tle": {"line1": "1 66489U 25263E   25339.91670139 -.01978502  00000+0 -26160-1 0  9998", "line2": "2 66489  42.9994 165.1626 0001602 268.8321   5.1349 15.60899028  4530"}}, "geometry": {"type": "Point", "coordinates": [-88.34372993485263, 41.32089291476471]}}, {"type": "Feature", "properties": {"norad_id": 66490, "name": "STARLINK-35693", "group": "last-30-days", "lat": 40.86120761808142, "lon": -85.87765208800025, "alt_km": 385.8916962868698, "timestamp": "2025-12-06T09:34:15.698974+00:00", "meta": {"OBJECT_NAME": "STARLINK-35693", "OBJECT_ID": "2025-263F", "EPOCH": "2025-12-05T22:00:03.000096", "MEAN_MOTION": 15.60899566, "ECCENTRICITY": 0.0001592, "INCLINATION": 42.9995, "RA_OF_ASC_NODE": 165.1582, "ARG_OF_PERICENTER": 264.8542, "MEAN_ANOMALY": 11.029, "EPHEMERIS_TYPE": 0, "CLASSIFICATION_TYPE": "U", "NORAD_CAT_ID": 66490, "ELEMENT_SET_NO": 999, "REV_AT_EPOCH": 453, "BSTAR": -0.026149942, "MEAN_MOTION_DOT": -0.01977888, "MEAN_MOTION_DDOT": 0}, "tle": {"line1": "1 66490U 25263F   25339.91670139 -.01977888  00000+0 -26150-1 0  9995", "line2": "2 66490  42.9995 165.1582 0001592 264.8542  11.0290 15.60899566  4531"}}, "geometry": {"type": "Point", "coordinates": [-85.87765208800025, 40.86120761808142]}}, {"type": "Feature", "properties": {"norad_id": 66491, "name": "STARLINK-35663", "group": "last-30-days", "lat": 39.78649426922984, "lon": -81.05374608838851, "alt_km": 386.0478798380009, "timestamp": "2025-12-06T09:34:15.698986+00:00", "meta": {"OBJECT_NAME": "STARLINK-35663", "OBJECT_ID": "2025-263G", "EPOCH": "2025-12-05T22:00:03.000096", "MEAN_MOTION": 15.60896945, "ECCENTRICITY": 0.00016171, "INCLINATION": 42.9993, "RA_OF_ASC_NODE": 165.1483, "ARG_OF_PERICENTER": 266.0943, "MEAN_ANOMALY": 13.623, "EPHEMERIS_TYPE": 0, "CLASSIFICATION_TYPE": "U", "NORAD_CAT_ID": 66491, "ELEMENT_SET_NO": 999, "REV_AT_EPOCH": 453, "BSTAR": -0.026086002, "MEAN_MOTION_DOT": -0.01973483, "MEAN_MOTION_DDOT": 0}, "tle": {"line1": "1 66491U 25263G   25339.91670139 -.01973483  00000+0 -26086-1 0  9991", "line2": "2 66491  42.9993 165.1483 0001617 266.0943  13.6230 15.60896945  4537"}}, "geometry": {"type": "Point", "coordinates": [-81.05374608838851, 39.78649426922984]}}]}